QIANFAN-81              
1 63167U 25046J   25249.90971229  .00000223  00000+0  32692-3 0  9992
2 63167  88.9854 329.8695 0015686  48.6269 311.6228 13.50973202 34417
QIANFAN-82              
1 63168U 25046K   25249.86850732  .00000230  00000+0  33769-3 0  9997
2 63168  88.9854 329.9172 0014126  57.0539 303.1969 13.50970110 34391
QIANFAN-83              
1 63169U 25046L   25249.86863641  .00000275  00000+0  34137-3 0  9990
2 63169  88.9854 329.8835 0015103  47.6949 312.5486 13.61947087 34413
QIANFAN-84              
1 63170U 25046M   25249.89719530  .00000218  00000+0  31853-3 0  9991
2 63170  88.9854 330.0473 0016946  52.1567 308.1115 13.50976149 34329
QIANFAN-85              
1 63171U 25046N   25249.89329005  .00000227  00000+0  33216-3 0  9991
2 63171  88.9854 329.9199 0014429  55.7922 304.4594 13.50971138 34390
QIANFAN-86              
1 63172U 25046P   25249.90150774  .00000224  00000+0  32896-3 0  9999
2 63172  88.9856 329.7789 0012465  60.9897 299.2501 13.50971699 34473
QIANFAN-87              
1 63173U 25046Q   25249.87267474  .00000229  00000+0  33523-3 0  9995
2 63173  88.9852 329.8971 0013003  56.0057 304.2328 13.50968036 34405
QIANFAN-88              
1 63174U 25046R   25249.88915229  .00000232  00000+0  34008-3 0  9998
2 63174  88.9855 329.8476 0013628  62.8923 297.3616 13.50975514 34433
